0 DELTA 1 DEB
1 37666U 78026KD  13284.20259078  .00000434  00000-0  24406-3 0  1332
2 37666 098.6155 265.4903 0037737 232.3936 127.3921 14.15058354552438
0 DELTA 1 DEB
1 37666U 78026KD  13287.73800534  .00000447  00000-0  25112-3 0  1342
2 37666 098.6160 268.9068 0037722 221.7466 138.0919 14.15062190552932
0 DELTA 1 DEB
1 37666U 78026KD  13289.78854203  .00000465  00000-0  26013-3 0  1353
2 37666 098.6157 270.8875 0037243 216.4070 143.4616 14.15064709553221
0 DELTA 1 DEB
1 37666U 78026KD  13293.18252679  .00000505  00000-0  28057-3 0  1367
2 37666 098.6140 274.1619 0036906 208.4178 151.5217 14.15069576553708
0 DELTA 1 DEB
1 37666U 78026KD  13295.72800461  .00000523  00000-0  28953-3 0  1373
2 37666 098.6176 276.6280 0037491 198.2671 161.7337 14.15072933554069
